{"type": "FeatureCollection", "features": [ {"type": "Feature", "properties": {"norad_id": 33728, "name": "FENGYUN 1C DEB", "group": "fengyun-1c-debris", "lat": -22.19017193087401, "lon": 57.958564191186376, "alt_km": 688.0869004109409, "timestamp": "2025-12-22T22:44:21.262852+00:00", "meta": {"OBJECT_NAME": "FENGYUN 1C DEB", "OBJECT_ID": "1999-025DHR", "EPOCH": "2025-12-19T03:08:31.669440", "MEAN_MOTION": 14.92712258, "ECCENTRICITY": 0.01477777, "INCLINATION": 98.9792, "RA_OF_ASC_NODE": 49.9098, "ARG_OF_PERICENTER": 194.4676, "MEAN_ANOMALY": 165.2288, "EPHEMERIS_TYPE": 0, "CLASSIFICATION_TYPE": "U", "NORAD_CAT_ID": 33728, "ELEMENT_SET_NO": 999, "REV_AT_EPOCH": 98395, "BSTAR": 0.00039692023, "MEAN_MOTION_DOT": 4.984e-05, "MEAN_MOTION_DDOT": 0}, "tle": {"line1": "1 33728U 99025DHR 25353.13092210  .00004984  00000+0  39692-3 0  9990", "line2": "2 33728  98.9792  49.9098 0147777 194.4676 165.2288 14.92712258983955"}}, "geometry": {"type": "Point", "coordinates": [57.958564191186376, -22.19017193087401]}}, {"type": "Feature", "properties": {"norad_id": 33730, "name": "FENGYUN 1C DEB", "group": "fengyun-1c-debris", "lat": -74.98166642410068, "lon": -160.77374920918336, "alt_km": 684.7102403421977, "timestamp": "2025-12-22T22:44:21.262862+00:00", "meta": {"OBJECT_NAME": "FENGYUN 1C DEB", "OBJECT_ID": "1999-025DHT", "EPOCH": "2025-12-17T10:18:00.572256", "MEAN_MOTION": 14.63540792, "ECCENTRICITY": 0.00393712, "INCLINATION": 99.0546, "RA_OF_ASC_NODE": 49.6389, "ARG_OF_PERICENTER": 356.5197, "MEAN_ANOMALY": 3.5723, "EPHEMERIS_TYPE": 0, "CLASSIFICATION_TYPE": "U", "NORAD_CAT_ID": 33730, "ELEMENT_SET_NO": 999, "REV_AT_EPOCH": 95748, "BSTAR": 0.0011805307, "MEAN_MOTION_DOT": 6.139e-05, "MEAN_MOTION_DDOT": 0}, "tle": {"line1": "1 33730U 99025DHT 25351.42917329  .00006139  00000+0  11805-2 0  9999", "line2": "2 33730  99.0546  49.6389 0039371 356.5197   3.5723 14.63540792957483"}}, "geometry": {"type": "Point", "coordinates": [-160.77374920918336, -74.98166642410068]}}, {"type": "Feature", "properties": {"norad_id": 33731, "name": "FENGYUN 1C DEB", "group": "fengyun-1c-debris", "lat": 33.96089151846592, "lon": -154.14653086306504, "alt_km": 949.0656638500614, "timestamp": "2025-12-22T22:44:21.262874+00:00", "meta": {"OBJECT_NAME": "FENGYUN 1C DEB", "OBJECT_ID": "1999-025DHU", "EPOCH": "2025-12-14T07:32:51.114336", "MEAN_MOTION": 13.95346461, "ECCENTRICITY": 0.01291818, "INCLINATION": 99.4471, "RA_OF_ASC_NODE": 10.5718, "ARG_OF_PERICENTER": 51.9301, "MEAN_ANOMALY": 309.3431, "EPHEMERIS_TYPE": 0, "CLASSIFICATION_TYPE": "U", "NORAD_CAT_ID": 33731, "ELEMENT_SET_NO": 999, "REV_AT_EPOCH": 90471, "BSTAR": 0.0013457717, "MEAN_MOTION_DOT": 1.908e-05, "MEAN_MOTION_DDOT": 0}, "tle": {"line1": "1 33731U 99025DHU 25348.31448049  .00001908  00000+0  13458-2 0  9997", "line2": "2 33731  99.4471  10.5718 0129181  51.9301 309.3431 13.95346461904712"}}, "geometry": {"type": "Point", "coordinates": [-154.14653086306504, 33.96089151846592]}}, {"type": "Feature", "properties": {"norad_id": 33733, "name": "FENGYUN 1C DEB", "group": "fengyun-1c-debris", "lat": -6.9451774456556965, "lon": 83.87567227139233, "alt_km": 840.1625044010052, "timestamp": "2025-12-22T22:44:21.262885+00:00", "meta": {"OBJECT_NAME": "FENGYUN 1C DEB", "OBJECT_ID": "1999-025DHW", "EPOCH": "2025-12-14T05:17:42.025056", "MEAN_MOTION": 14.31052291, "ECCENTRICITY": 0.0080503, "INCLINATION": 99.1007, "RA_OF_ASC_NODE": 73.621, "ARG_OF_PERICENTER": 166.27, "MEAN_ANOMALY": 251.3144, "EPHEMERIS_TYPE": 0, "CLASSIFICATION_TYPE": "U", "NORAD_CAT_ID": 33733, "ELEMENT_SET_NO": 999, "REV_AT_EPOCH": 90469, "BSTAR": 0.0032633, "MEAN_MOTION_DOT": 8.868e-05, "MEAN_MOTION_DDOT": 0}, "tle": {"line1": "1 33733U 99025DHW 25348.22062529  .00008868  00000+0  32633-2 0  9992", "line2": "2 33733  99.1007  73.6210 0080503 166.2700 251.3144 14.31052291904690"}}, "geometry": {"type": "Point", "coordinates": [83.87567227139233, -6.9451774456556965]}}, {"type": "Feature", "properties": {"norad_id": 33737, "name": "FENGYUN 1C DEB", "group": "fengyun-1c-debris", "lat": -55.19336444189268, "lon": -2.166362642339417, "alt_km": 801.5824582704445, "timestamp": "2025-12-22T22:44:21.262896+00:00", "meta": {"OBJECT_NAME": "FENGYUN 1C DEB", "OBJECT_ID": "1999-025DJA", "EPOCH": "2025-12-22T11:29:25.544832", "MEAN_MOTION": 14.03037461, "ECCENTRICITY": 0.01283741, "INCLINATION": 98.3386, "RA_OF_ASC_NODE": 189.5832, "ARG_OF_PERICENTER": 255.4824, "MEAN_ANOMALY": 134.9356, "EPHEMERIS_TYPE": 0, "CLASSIFICATION_TYPE": "U", "NORAD_CAT_ID": 33737, "ELEMENT_SET_NO": 999, "REV_AT_EPOCH": 88877, "BSTAR": 0.0012687361, "MEAN_MOTION_DOT": 2.08e-05, "MEAN_MOTION_DDOT": 0}, "tle": {"line1": "1 33737U 99025DJA 25356.47876788  .00002080  00000+0  12687-2 0  9999", "line2": "2 33737  98.3386 189.5832 0128374 255.4824 134.9356 14.03037461888771"}}, "geometry": {"type": "Point", "coordinates": [-2.166362642339417, -55.19336444189268]}}, {"type": "Feature", "properties": {"norad_id": 33738, "name": "FENGYUN 1C DEB", "group": "fengyun-1c-debris", "lat": 29.939971297831995, "lon": 51.65362303460841, "alt_km": 785.7918790950725, "timestamp": "2025-12-22T22:44:21.262906+00:00", "meta": {"OBJECT_NAME": "FENGYUN 1C DEB", "OBJECT_ID": "1999-025DJB", "EPOCH": "2025-12-21T10:38:24.542304", "MEAN_MOTION": 13.99545443, "ECCENTRICITY": 0.01844931, "INCLINATION": 99.1507, "RA_OF_ASC_NODE": 55.4765, "ARG_OF_PERICENTER": 357.5118, "MEAN_ANOMALY": 17.4726, "EPHEMERIS_TYPE": 0, "CLASSIFICATION_TYPE": "U", "NORAD_CAT_ID": 33738, "ELEMENT_SET_NO": 999, "REV_AT_EPOCH": 89358, "BSTAR": 0.00043721449, "MEAN_MOTION_DOT": 6.93e-06, "MEAN_MOTION_DDOT": 0}, "tle": {"line1": "1 33738U 99025DJB 25355.44333961  .00000693  00000+0  43721-3 0  9999", "line2": "2 33738  99.1507  55.4765 0184493 357.5118  17.4726 13.99545443893585"}}, "geometry": {"type": "Point", "coordinates": [51.65362303460841, 29.939971297831995]}}, {"type": "Feature", "properties": {"norad_id": 33740, "name": "FENGYUN 1C DEB", "group": "fengyun-1c-debris", "lat": 3.5471631873018863, "lon": -169.9127789578672, "alt_km": 853.301191534908, "timestamp": "2025-12-22T22:44:21.262916+00:00", "meta": {"OBJECT_NAME": "FENGYUN 1C DEB", "OBJECT_ID": "1999-025DJD", "EPOCH": "2025-12-18T07:23:22.108128", "MEAN_MOTION": 14.12325643, "ECCENTRICITY": 0.00021877, "INCLINATION": 98.6868, "RA_OF_ASC_NODE": 5.0478, "ARG_OF_PERICENTER": 119.664, "MEAN_ANOMALY": 240.475, "EPHEMERIS_TYPE": 0, "CLASSIFICATION_TYPE": "U", "NORAD_CAT_ID": 33740, "ELEMENT_SET_NO": 999, "REV_AT_EPOCH": 90225, "BSTAR": 0.00012962131, "MEAN_MOTION_DOT": 1.96e-06, "MEAN_MOTION_DDOT": 0}, "tle": {"line1": "1 33740U 99025DJD 25352.30789477  .00000196  00000+0  12962-3 0  9992", "line2": "2 33740  98.6868   5.0478 0002187 119.6640 240.4750 14.12325643902254"}}, "geometry": {"type": "Point", "coordinates": [-169.9127789578672, 3.5471631873018863]}}, {"type": "Feature", "properties": {"norad_id": 33741, "name": "FENGYUN 1C DEB", "group": "fengyun-1c-debris", "lat": 53.44220130156681, "lon": 101.78399361087219, "alt_km": 816.165312054195, "timestamp": "2025-12-22T22:44:21.262937+00:00", "meta": {"OBJECT_NAME": "FENGYUN 1C DEB", "OBJECT_ID": "1999-025DJE", "EPOCH": "2025-12-20T17:21:28.699776", "MEAN_MOTION": 14.09870103, "ECCENTRICITY": 0.01285709, "INCLINATION": 98.5653, "RA_OF_ASC_NODE": 267.9394, "ARG_OF_PERICENTER": 65.7344, "MEAN_ANOMALY": 295.7197, "EPHEMERIS_TYPE": 0, "CLASSIFICATION_TYPE": "U", "NORAD_CAT_ID": 33741, "ELEMENT_SET_NO": 999, "REV_AT_EPOCH": 56975, "BSTAR": 0.0014103397, "MEAN_MOTION_DOT": 2.64e-05, "MEAN_MOTION_DDOT": 0}, "tle": {"line1": "1 33741U 99025DJE 25354.72324884  .00002640  00000+0  14103-2 0  9992", "line2": "2 33741  98.5653 267.9394 0128570  65.7344 295.7197 14.09870103569753"}}, "geometry": {"type": "Point", "coordinates": [101.78399361087219, 53.44220130156681]}}, {"type": "Feature", "properties": {"norad_id": 33745, "name": "FENGYUN 1C DEB", "group": "fengyun-1c-debris", "lat": -42.96226064073721, "lon": -154.1454940498645, "alt_km": 785.9528099896206, "timestamp": "2025-12-22T22:44:21.262948+00:00", "meta": {"OBJECT_NAME": "FENGYUN 1C DEB", "OBJECT_ID": "1999-025DJJ", "EPOCH": "2025-12-17T13:22:43.604832", "MEAN_MOTION": 14.22346964, "ECCENTRICITY": 0.00542183, "INCLINATION": 99.1148, "RA_OF_ASC_NODE": 28.8825, "ARG_OF_PERICENTER": 252.2828, "MEAN_ANOMALY": 107.2426, "EPHEMERIS_TYPE": 0, "CLASSIFICATION_TYPE": "U", "NORAD_CAT_ID": 33745, "ELEMENT_SET_NO": 999, "REV_AT_EPOCH": 66070, "BSTAR": 0.0010724416, "MEAN_MOTION_DOT": 2.374e-05, "MEAN_MOTION_DDOT": 0}, "tle": {"line1": "1 33745U 99025DJJ 25351.55744913  .00002374  00000+0  10724-2 0  9992", "line2": "2 33745  99.1148  28.8825 0054218 252.2828 107.2426 14.22346964660700"}}, "geometry": {"type": "Point", "coordinates": [-154.1454940498645, -42.96226064073721]}}, {"type": "Feature", "properties": {"norad_id": 33747, "name": "FENGYUN 1C DEB", "group": "fengyun-1c-debris", "lat": -38.320530197325034, "lon": 99.14200792234486, "alt_km": 883.8439461377538, "timestamp": "2025-12-22T22:44:21.262959+00:00", "meta": {"OBJECT_NAME": "FENGYUN 1C DEB", "OBJECT_ID": "1999-025DJL", "EPOCH": "2025-12-20T01:28:07.665312", "MEAN_MOTION": 14.17505011, "ECCENTRICITY": 0.00910261, "INCLINATION": 99.0962, "RA_OF_ASC_NODE": 88.9142, "ARG_OF_PERICENTER": 197.1954, "MEAN_ANOMALY": 162.6131, "EPHEMERIS_TYPE": 0, "CLASSIFICATION_TYPE": "U", "NORAD_CAT_ID": 33747, "ELEMENT_SET_NO": 999, "REV_AT_EPOCH": 90236, "BSTAR": 0.001836775, "MEAN_MOTION_DOT": 3.837e-05, "MEAN_MOTION_DDOT": 0}, "tle": {"line1": "1 33747U 99025DJL 25354.06119983  .00003837  00000+0  18368-2 0  9993", "line2": "2 33747  99.0962  88.9142 0091026 197.1954 162.6131 14.17505011902362"}}, "geometry": {"type": "Point", "coordinates": [99.14200792234486, -38.320530197325034]}}]}